{
  "type": "FeatureCollection",
  "features": [
    {
      "type": "Feature",
      "properties": {
        "norad_id": 41581,
        "name": "INTELSAT 31 (IS-31)",
        "group": "intelsat",
        "lat": -0.024186004694580637,
        "lon": -144.42484449309669,
        "alt_km": 35777.94406306871,
        "timestamp": "2025-12-21T14:40:47.578637+00:00",
        "meta_object_name": "INTELSAT 31 (IS-31)",
        "meta_object_id": "2016-035A",
        "meta_epoch": "2025-12-20T14:29:23.871264",
        "meta_mean_motion": 1.00271704,
        "meta_eccentricity": 0.00019976,
        "meta_inclination": 0.0288,
        "meta_ra_of_asc_node": 267.9464,
        "meta_arg_of_pericenter": 295.2319,
        "meta_mean_anomaly": 8.5584,
        "meta_ephemeris_type": 0,
        "meta_classification_type": "U",
        "meta_norad_cat_id": 41581,
        "meta_element_set_no": 999,
        "meta_rev_at_epoch": 3489,
        "meta_bstar": 0,
        "meta_mean_motion_dot": -1.27e-06,
        "meta_mean_motion_ddot": 0,
        "tle_line1": "1 41581U 16035A   25354.60374851 -.00000127  00000+0  00000+0 0  9996",
        "tle_line2": "2 41581   0.0288 267.9464 0001997 295.2319   8.5584  1.00271704 34890"
      },
      "geometry": {
        "type": "Point",
        "coordinates": [
          -144.42484449309669,
          -0.024186004694580637
        ]
      }
    },
    {
      "type": "Feature",
      "properties": {
        "norad_id": 41747,
        "name": "INTELSAT 36 (IS-36)",
        "group": "intelsat",
        "lat": 0.012385019641208707,
        "lon": 19.126305714897903,
        "alt_km": 35782.44739313259,
        "timestamp": "2025-12-21T14:40:47.578649+00:00",
        "meta_object_name": "INTELSAT 36 (IS-36)",
        "meta_object_id": "2016-053A",
        "meta_epoch": "2025-12-21T04:57:48.972384",
        "meta_mean_motion": 1.00273317,
        "meta_eccentricity": 0.00012154,
        "meta_inclination": 0.0105,
        "meta_ra_of_asc_node": 358.7052,
        "meta_arg_of_pericenter": 329.3234,
        "meta_mean_anomaly": 264.9497,
        "meta_ephemeris_type": 0,
        "meta_classification_type": "U",
        "meta_norad_cat_id": 41747,
        "meta_element_set_no": 999,
        "meta_rev_at_epoch": 3416,
        "meta_bstar": 0,
        "meta_mean_motion_dot": -2e-08,
        "meta_mean_motion_ddot": 0,
        "tle_line1": "1 41747U 16053A   25355.20681681 -.00000002  00000+0  00000+0 0  9991",
        "tle_line2": "2 41747   0.0105 358.7052 0001215 329.3234 264.9497  1.00273317 34165"
      },
      "geometry": {
        "type": "Point",
        "coordinates": [
          19.126305714897903,
          0.012385019641208707
        ]
      }
    },
    {
      "type": "Feature",
      "properties": {
        "norad_id": 41945,
        "name": "INTELSAT 32E (IS-32E)",
        "group": "intelsat",
        "lat": -0.027100521790093857,
        "lon": -92.5734178495234,
        "alt_km": 35788.972103912856,
        "timestamp": "2025-12-21T14:40:47.578660+00:00",
        "meta_object_name": "INTELSAT 32E (IS-32E)",
        "meta_object_id": "2017-007B",
        "meta_epoch": "2025-12-21T04:23:38.749632",
        "meta_mean_motion": 1.00267769,
        "meta_eccentricity": 7.915e-05,
        "meta_inclination": 0.0277,
        "meta_ra_of_asc_node": 70.1638,
        "meta_arg_of_pericenter": 318.0314,
        "meta_mean_anomaly": 84.5444,
        "meta_ephemeris_type": 0,
        "meta_classification_type": "U",
        "meta_norad_cat_id": 41945,
        "meta_element_set_no": 999,
        "meta_rev_at_epoch": 3244,
        "meta_bstar": 0,
        "meta_mean_motion_dot": -2.46e-06,
        "meta_mean_motion_ddot": 0,
        "tle_line1": "1 41945U 17007B   25355.18308738 -.00000246  00000+0  00000+0 0  9997",
        "tle_line2": "2 41945   0.0277  70.1638 0000791 318.0314  84.5444  1.00267769 32443"
      },
      "geometry": {
        "type": "Point",
        "coordinates": [
          -92.5734178495234,
          -0.027100521790093857
        ]
      }
    },
    {
      "type": "Feature",
      "properties": {
        "norad_id": 42818,
        "name": "INTELSAT 35E (IS-35E)",
        "group": "intelsat",
        "lat": -0.040791602150513584,
        "lon": -83.87080464756666,
        "alt_km": 35778.537972255705,
        "timestamp": "2025-12-21T14:40:47.578672+00:00",
        "meta_object_name": "INTELSAT 35E (IS-35E)",
        "meta_object_id": "2017-041A",
        "meta_epoch": "2025-12-21T02:45:46.617696",
        "meta_mean_motion": 1.00270832,
        "meta_eccentricity": 0.0001858,
        "meta_inclination": 0.017,
        "meta_ra_of_asc_node": 28.2756,
        "meta_arg_of_pericenter": 244.397,
        "meta_mean_anomaly": 184.2219,
        "meta_ephemeris_type": 0,
        "meta_classification_type": "U",
        "meta_norad_cat_id": 42818,
        "meta_element_set_no": 999,
        "meta_rev_at_epoch": 3103,
        "meta_bstar": 0,
        "meta_mean_motion_dot": -2.15e-06,
        "meta_mean_motion_ddot": 0,
        "tle_line1": "1 42818U 17041A   25355.11512289 -.00000215  00000+0  00000+0 0  9992",
        "tle_line2": "2 42818   0.0170  28.2756 0001858 244.3970 184.2219  1.00270832 31031"
      },
      "geometry": {
        "type": "Point",
        "coordinates": [
          -83.87080464756666,
          -0.040791602150513584
        ]
      }
    },
    {
      "type": "Feature",
      "properties": {
        "norad_id": 42950,
        "name": "INTELSAT 37E (IS-37E)",
        "group": "intelsat",
        "lat": -0.043094426313082086,
        "lon": -67.36840431593866,
        "alt_km": 35775.60316330805,
        "timestamp": "2025-12-21T14:40:47.578684+00:00",
        "meta_object_name": "INTELSAT 37E (IS-37E)",
        "meta_object_id": "2017-059A",
        "meta_epoch": "2025-12-21T03:48:38.471904",
        "meta_mean_motion": 1.00271819,
        "meta_eccentricity": 0.00028325,
        "meta_inclination": 0.0177,
        "meta_ra_of_asc_node": 17.7899,
        "meta_arg_of_pericenter": 245.6869,
        "meta_mean_anomaly": 225.6628,
        "meta_ephemeris_type": 0,
        "meta_classification_type": "U",
        "meta_norad_cat_id": 42950,
        "meta_element_set_no": 999,
        "meta_rev_at_epoch": 3028,
        "meta_bstar": 0,
        "meta_mean_motion_dot": -1.18e-06,
        "meta_mean_motion_ddot": 0,
        "tle_line1": "1 42950U 17059A   25355.15877861 -.00000118  00000+0  00000+0 0  9994",
        "tle_line2": "2 42950   0.0177  17.7899 0002832 245.6869 225.6628  1.00271819 30286"
      },
      "geometry": {
        "type": "Point",
        "coordinates": [
          -67.36840431593866,
          -0.043094426313082086
        ]
      }
    },
    {
      "type": "Feature",
      "properties": {
        "norad_id": 43632,
        "name": "AZERSPACE 2 (IS-38)",
        "group": "intelsat",
        "lat": 0.005627876459545809,
        "lon": -4.2453543075029065,
        "alt_km": 35785.413251909355,
        "timestamp": "2025-12-21T14:40:47.578695+00:00",
        "meta_object_name": "AZERSPACE 2 (IS-38)",
        "meta_object_id": "2018-074A",
        "meta_epoch": "2025-12-21T04:51:12.105216",
        "meta_mean_motion": 1.0027232,
        "meta_eccentricity": 0.00012386,
        "meta_inclination": 0.018,
        "meta_ra_of_asc_node": 339.9827,
        "meta_arg_of_pericenter": 290.8926,
        "meta_mean_anomaly": 297.0712,
        "meta_ephemeris_type": 0,
        "meta_classification_type": "U",
        "meta_norad_cat_id": 43632,
        "meta_element_set_no": 999,
        "meta_rev_at_epoch": 2666,
        "meta_bstar": 0,
        "meta_mean_motion_dot": 1.59e-06,
        "meta_mean_motion_ddot": 0,
        "tle_line1": "1 43632U 18074A   25355.20222344  .00000159  00000+0  00000+0 0  9990",
        "tle_line2": "2 43632   0.0180 339.9827 0001238 290.8926 297.0712  1.00272320 26665"
      },
      "geometry": {
        "type": "Point",
        "coordinates": [
          -4.2453543075029065,
          0.005627876459545809
        ]
      }
    },
    {
      "type": "Feature",
      "properties": {
        "norad_id": 43633,
        "name": "HORIZONS-3E",
        "group": "intelsat",
        "lat": -0.010074941816149152,
        "lon": 119.59691145831843,
        "alt_km": 35789.13382260458,
        "timestamp": "2025-12-21T14:40:47.578707+00:00",
        "meta_object_name": "HORIZONS-3E",
        "meta_object_id": "2018-074B",
        "meta_epoch": "2025-12-20T20:52:53.061312",
        "meta_mean_motion": 1.00270825,
        "meta_eccentricity": 6.664e-05,
        "meta_inclination": 0.0092,
        "meta_ra_of_asc_node": 228.8409,
        "meta_arg_of_pericenter": 76.0136,
        "meta_mean_anomaly": 267.0442,
        "meta_ephemeris_type": 0,
        "meta_classification_type": "U",
        "meta_norad_cat_id": 43633,
        "meta_element_set_no": 999,
        "meta_rev_at_epoch": 2655,
        "meta_bstar": 0,
        "meta_mean_motion_dot": 0,
        "meta_mean_motion_ddot": 0,
        "tle_line1": "1 43633U 18074B   25354.87005858  .00000000  00000+0  00000+0 0  9997",
        "tle_line2": "2 43633   0.0092 228.8409 0000666  76.0136 267.0442  1.00270825 26554"
      },
      "geometry": {
        "type": "Point",
        "coordinates": [
          119.59691145831843,
          -0.010074941816149152
        ]
      }
    }
  ]
}